start=new Date('2023-01-09T00:00:00.000Z').valueOf();
sats=[{"EPOCH":"2023-01-08T15:00:23.918112","REV_AT_EPOCH":"10573","INCLINATION":"53.0522","ELEMENT_SET_NO":"999","OBJECT_ID":"2021-012F","TLE_LINE1":"1 47625U 21012F   23008.62527683  .00005613  00000-0  39540-3 0  9991","MEAN_ANOMALY":"295.7509","EPHEMERIS_TYPE":"0","ECCENTRICITY":"0.00015580","PERIOD":"95.592","LAUNCH_DATE":"2021-02-16","TLE_LINE2":"2 47625  53.0522 221.3785 0001558  64.3640 295.7509 15.06399391105732","GP_ID":"222497796","FILE":"3736460","OBJECT_NAME":"STARLINK-1704","BSTAR":"0.00039540000000","RA_OF_ASC_NODE":"221.3785","RCS_SIZE":"LARGE","MEAN_MOTION_DDOT":"0.0000000000000","CENTER_NAME":"EARTH","CLASSIFICATION_TYPE":"U","MEAN_ELEMENT_THEORY":"SGP4","DECAY_DATE":null,"SEMIMAJOR_AXIS":"6925.350","COUNTRY_CODE":"US","TIME_SYSTEM":"UTC","PERIAPSIS":"546.136","REF_FRAME":"TEME","ARG_OF_PERICENTER":"64.3640","MEAN_MOTION_DOT":"0.00005613","OBJECT_TYPE":"PAYLOAD","NORAD_CAT_ID":"47625","APOAPSIS":"548.294","SITE":"AFETR","MEAN_MOTION":"15.06399391"},{"RA_OF_ASC_NODE":"222.9548","RCS_SIZE":"LARGE","MEAN_MOTION_DDOT":"0.0000000000000","CENTER_NAME":"EARTH","DECAY_DATE":null,"SEMIMAJOR_AXIS":"6925.353","MEAN_ELEMENT_THEORY":"SGP4","CLASSIFICATION_TYPE":"U","PERIOD":"95.592","ECCENTRICITY":"0.00014770","LAUNCH_DATE":"2021-02-16","TLE_LINE2":"2 47626  53.0525 222.9548 0001477  69.1440 290.9707 15.06398402105178","GP_ID":"222473167","FILE":"3736366","OBJECT_NAME":"STARLINK-1761","BSTAR":"0.00020049000000","TLE_LINE1":"1 47626U 21012G   23008.27973283  .00002706  00000-0  20049-3 0  9998","ELEMENT_SET_NO":"999","OBJECT_ID":"2021-012G","EPHEMERIS_TYPE":"0","MEAN_ANOMALY":"290.9707","EPOCH":"2023-01-08T06:42:48.916512","REV_AT_EPOCH":"10517","INCLINATION":"53.0525","MEAN_MOTION":"15.06398402","NORAD_CAT_ID":"47626","APOAPSIS":"548.241","ARG_OF_PERICENTER":"69.1440","MEAN_MOTION_DOT":"0.00002706","OBJECT_TYPE":"PAYLOAD","SITE":"AFETR","TIME_SYSTEM":"UTC","PERIAPSIS":"546.196","REF_FRAME":"TEME","COUNTRY_CODE":"US"},{"EPOCH":"2023-01-08T18:06:51.249312","REV_AT_EPOCH":"10706","INCLINATION":"53.0554","ELEMENT_SET_NO":"999","OBJECT_ID":"2021-012H","TLE_LINE1":"1 47627U 21012H   23008.75475983  .00004158  00000-0  29786-3 0  9996","MEAN_ANOMALY":"300.9947","EPHEMERIS_TYPE":"0","PERIOD":"95.592","ECCENTRICITY":"0.00015000","TLE_LINE2":"2 47627  53.0554 125.8256 0001500  59.1189 300.9947 15.06397283107068","LAUNCH_DATE":"2021-02-16","FILE":"3736460","GP_ID":"222496795","OBJECT_NAME":"STARLINK-1972","BSTAR":"0.00029786000000","RCS_SIZE":"LARGE","RA_OF_ASC_NODE":"125.8256","MEAN_MOTION_DDOT":"0.0000000000000","CENTER_NAME":"EARTH","CLASSIFICATION_TYPE":"U","MEAN_ELEMENT_THEORY":"SGP4","SEMIMAJOR_AXIS":"6925.357","DECAY_DATE":null,"COUNTRY_CODE":"US","TIME_SYSTEM":"UTC","PERIAPSIS":"546.183","REF_FRAME":"TEME","ARG_OF_PERICENTER":"59.1189","MEAN_MOTION_DOT":"0.00004158","OBJECT_TYPE":"PAYLOAD","NORAD_CAT_ID":"47627","APOAPSIS":"548.261","SITE":"AFETR","MEAN_MOTION":"15.06397283"},{"MEAN_MOTION_DDOT":"0.0000000000000","CENTER_NAME":"EARTH","RCS_SIZE":"LARGE","RA_OF_ASC_NODE":"220.3962","DECAY_DATE":null,"SEMIMAJOR_AXIS":"6925.345","MEAN_ELEMENT_THEORY":"SGP4","CLASSIFICATION_TYPE":"U","LAUNCH_DATE":"2021-02-16","TLE_LINE2":"2 47628  53.0520 220.3962 0001452 107.4872 252.6276 15.06401304105773","ECCENTRICITY":"0.00014520","PERIOD":"95.592","BSTAR":"0.00015638000000","OBJECT_NAME":"STARLINK-1973","GP_ID":"222497045","FILE":"3736460","TLE_LINE1":"1 47628U 21012J   23008.84641898  .00002049  00000-0  15638-3 0  9995","ELEMENT_SET_NO":"999","OBJECT_ID":"2021-012J","EPHEMERIS_TYPE":"0","MEAN_ANOMALY":"252.6276","EPOCH":"2023-01-08T20:18:50.599872","INCLINATION":"53.0520","REV_AT_EPOCH":"10577","MEAN_MOTION":"15.06401304","APOAPSIS":"548.215","NORAD_CAT_ID":"47628","MEAN_MOTION_DOT":"0.00002049","OBJECT_TYPE":"PAYLOAD","ARG_OF_PERICENTER":"107.4872","SITE":"AFETR","PERIAPSIS":"546.204","TIME_SYSTEM":"UTC","REF_FRAME":"TEME","COUNTRY_CODE":"US"},{"ELEMENT_SET_NO":"999","OBJECT_ID":"2021-012K","TLE_LINE1":"1 47629U 21012K   23008.62989511  .00005821  00000-0  40926-3 0  9998","MEAN_ANOMALY":"309.2314","EPHEMERIS_TYPE":"0","EPOCH":"2023-01-08T15:07:02.937504","REV_AT_EPOCH":"10740","INCLINATION":"53.0540","RCS_SIZE":"LARGE","RA_OF_ASC_NODE":"101.3872","MEAN_MOTION_DDOT":"0.0000000000000","CENTER_NAME":"EARTH","CLASSIFICATION_TYPE":"U","MEAN_ELEMENT_THEORY":"SGP4","DECAY_DATE":null,"SEMIMAJOR_AXIS":"6925.330","PERIOD":"95.592","ECCENTRICITY":"0.00018120","TLE_LINE2":"2 47629  53.0540 101.3872 0001812  50.8836 309.2314 15.06406207107406","LAUNCH_DATE":"2021-02-16","FILE":"3736460","GP_ID":"222497297","OBJECT_NAME":"STARLINK-1974","BSTAR":"0.00040926000000","TIME_SYSTEM":"UTC","PERIAPSIS":"545.940","REF_FRAME":"TEME","COUNTRY_CODE":"US","MEAN_MOTION":"15.06406207","ARG_OF_PERICENTER":"50.8836","OBJECT_TYPE":"PAYLOAD","MEAN_MOTION_DOT":"0.00005821","NORAD_CAT_ID":"47629","APOAPSIS":"548.449","SITE":"AFETR"},{"CLASSIFICATION_TYPE":"U","MEAN_ELEMENT_THEORY":"SGP4","DECAY_DATE":null,"SEMIMAJOR_AXIS":"6925.340","RCS_SIZE":"LARGE","RA_OF_ASC_NODE":"200.1664","MEAN_MOTION_DDOT":"0.0000000000000","CENTER_NAME":"EARTH","GP_ID":"222497548","FILE":"3736460","OBJECT_NAME":"STARLINK-1983","BSTAR":"0.00015800000000","PERIOD":"95.592","ECCENTRICITY":"0.00015000","LAUNCH_DATE":"2021-02-16","TLE_LINE2":"2 47630  53.0534 200.1664 0001500  72.7986 287.3167 15.06402668106049","MEAN_ANOMALY":"287.3167","EPHEMERIS_TYPE":"0","ELEMENT_SET_NO":"999","OBJECT_ID":"2021-012L","TLE_LINE1":"1 47630U 21012L   23008.91925200  .00002073  00000-0  15800-3 0  9996","REV_AT_EPOCH":"10604","INCLINATION":"53.0534","EPOCH":"2023-01-08T22:03:43.372800","MEAN_MOTION":"15.06402668","SITE":"AFETR","ARG_OF_PERICENTER":"72.7986","MEAN_MOTION_DOT":"0.00002073","OBJECT_TYPE":"PAYLOAD","NORAD_CAT_ID":"47630","APOAPSIS":"548.244","REF_FRAME":"TEME","TIME_SYSTEM":"UTC","PERIAPSIS":"546.167","COUNTRY_CODE":"US"},{"COUNTRY_CODE":"US","REF_FRAME":"TEME","TIME_SYSTEM":"UTC","PERIAPSIS":"546.023","SITE":"AFETR","NORAD_CAT_ID":"47632","APOAPSIS":"548.465","ARG_OF_PERICENTER":"53.3152","MEAN_MOTION_DOT":"0.00003455","OBJECT_TYPE":"PAYLOAD","MEAN_MOTION":"15.06390152","REV_AT_EPOCH":"10706","INCLINATION":"53.0540","EPOCH":"2023-01-08T17:07:06.326688","EPHEMERIS_TYPE":"0","MEAN_ANOMALY":"306.7999","TLE_LINE1":"1 47632U 21012N   23008.71326767  .00003455  00000-0  25080-3 0  9995","ELEMENT_SET_NO":"999","OBJECT_ID":"2021-012N","OBJECT_NAME":"STARLINK-1992","GP_ID":"222496296","FILE":"3736460","BSTAR":"0.00025080000000","ECCENTRICITY":"0.00017630","PERIOD":"95.593","TLE_LINE2":"2 47632  53.0540 125.9957 0001763  53.3152 306.7999 15.06390152107064","LAUNCH_DATE":"2021-02-16","SEMIMAJOR_AXIS":"6925.379","DECAY_DATE":null,"CLASSIFICATION_TYPE":"U","MEAN_ELEMENT_THEORY":"SGP4","RA_OF_ASC_NODE":"125.9957","RCS_SIZE":"LARGE","CENTER_NAME":"EARTH","MEAN_MOTION_DDOT":"0.0000000000000"},{"MEAN_MOTION":"15.06388487","SITE":"AFETR","ARG_OF_PERICENTER":"75.0333","MEAN_MOTION_DOT":"0.00004562","OBJECT_TYPE":"PAYLOAD","NORAD_CAT_ID":"47633","APOAPSIS":"548.348","REF_FRAME":"TEME","TIME_SYSTEM":"UTC","PERIAPSIS":"546.150","COUNTRY_CODE":"US","CLASSIFICATION_TYPE":"U","MEAN_ELEMENT_THEORY":"SGP4","SEMIMAJOR_AXIS":"6925.384","DECAY_DATE":null,"RA_OF_ASC_NODE":"220.3598","RCS_SIZE":"LARGE","MEAN_MOTION_DDOT":"0.0000000000000","CENTER_NAME":"EARTH","FILE":"3736460","GP_ID":"222496546","OBJECT_NAME":"STARLINK-2009","BSTAR":"0.00032509000000","PERIOD":"95.593","ECCENTRICITY":"0.00015870","LAUNCH_DATE":"2021-02-16","TLE_LINE2":"2 47633  53.0541 220.3598 0001587  75.0333 285.0832 15.06388487105794","MEAN_ANOMALY":"285.0832","EPHEMERIS_TYPE":"0","ELEMENT_SET_NO":"999","OBJECT_ID":"2021-012P","TLE_LINE1":"1 47633U 21012P   23008.86487392  .00004562  00000-0  32509-3 0  9998","REV_AT_EPOCH":"10579","INCLINATION":"53.0541","EPOCH":"2023-01-08T20:45:25.106688"},{"EPHEMERIS_TYPE":"0","MEAN_ANOMALY":"278.2039","TLE_LINE1":"1 47634U 21012Q   23008.57461770  .00003951  00000-0  28405-3 0  9990","ELEMENT_SET_NO":"999","OBJECT_ID":"2021-012Q","INCLINATION":"53.0532","REV_AT_EPOCH":"10572","EPOCH":"2023-01-08T13:47:26.969280","SEMIMAJOR_AXIS":"6925.369","DECAY_DATE":null,"CLASSIFICATION_TYPE":"U","MEAN_ELEMENT_THEORY":"SGP4","CENTER_NAME":"EARTH","MEAN_MOTION_DDOT":"0.0000000000000","RCS_SIZE":"LARGE","RA_OF_ASC_NODE":"221.6317","BSTAR":"0.00028405000000","GP_ID":"222466315","FILE":"3736235","OBJECT_NAME":"STARLINK-2010","TLE_LINE2":"2 47634  53.0532 221.6317 0001510  81.9121 278.2039 15.06393337105721","LAUNCH_DATE":"2021-02-16","PERIOD":"95.593","ECCENTRICITY":"0.00015100","REF_FRAME":"TEME","PERIAPSIS":"546.188","TIME_SYSTEM":"UTC","COUNTRY_CODE":"US","MEAN_MOTION":"15.06393337","SITE":"AFETR","APOAPSIS":"548.280","NORAD_CAT_ID":"47634","OBJECT_TYPE":"PAYLOAD","MEAN_MOTION_DOT":"0.00003951","ARG_OF_PERICENTER":"81.9121"},{"PERIOD":"95.593","ECCENTRICITY":"0.00018940","TLE_LINE2":"2 47635  53.0537 126.5211 0001894  51.7295 308.3864 15.06390998107065","LAUNCH_DATE":"2021-02-16","GP_ID":"222464563","FILE":"3736235","OBJECT_NAME":"STARLINK-2012","BSTAR":"0.00016400000000","RCS_SIZE":"LARGE","RA_OF_ASC_NODE":"126.5211","MEAN_MOTION_DDOT":"0.0000000000000","CENTER_NAME":"EARTH","CLASSIFICATION_TYPE":"U","MEAN_ELEMENT_THEORY":"SGP4","DECAY_DATE":null,"SEMIMAJOR_AXIS":"6925.376","EPOCH":"2023-01-08T14:23:55.883040","REV_AT_EPOCH":"10706","INCLINATION":"53.0537","ELEMENT_SET_NO":"999","OBJECT_ID":"2021-012R","TLE_LINE1":"1 47635U 21012R   23008.59995235  .00002161  00000-0  16400-3 0  9995","MEAN_ANOMALY":"308.3864","EPHEMERIS_TYPE":"0","ARG_OF_PERICENTER":"51.7295","MEAN_MOTION_DOT":"0.00002161","OBJECT_TYPE":"PAYLOAD","NORAD_CAT_ID":"47635","APOAPSIS":"548.553","SITE":"AFETR","MEAN_MOTION":"15.06390998","COUNTRY_CODE":"US","TIME_SYSTEM":"UTC","PERIAPSIS":"545.929","REF_FRAME":"TEME"}];
